[{"OBJECT_NAME":"STARLINK-4179","OBJECT_ID":"2022-086AK","EPOCH":"2026-03-09T15:01:18.846912","MEAN_MOTION":15.08837995,"ECCENTRICITY":0.0001218,"INCLINATION":53.2176,"RA_OF_ASC_NODE":184.4077,"ARG_OF_PERICENTER":80.977,"MEAN_ANOMALY":279.136,"EPHEMERIS_TYPE":0,"CLASSIFICATION_TYPE":"U","NORAD_CAT_ID":53275,"ELEMENT_SET_NO":999,"REV_AT_EPOCH":20118,"BSTAR":4.479e-6,"MEAN_MOTION_DOT":-2.17e-6,"MEAN_MOTION_DDOT":0},{"OBJECT_NAME":"YAM-8","OBJECT_ID":"2025-052AW","EPOCH":"2026-03-09T17:32:32.161056","MEAN_MOTION":15.10898939,"ECCENTRICITY":0.00023693,"INCLINATION":97.7023,"RA_OF_ASC_NODE":329.5345,"ARG_OF_PERICENTER":152.6796,"MEAN_ANOMALY":207.4558,"EPHEMERIS_TYPE":0,"CLASSIFICATION_TYPE":"U","NORAD_CAT_ID":63254,"ELEMENT_SET_NO":999,"REV_AT_EPOCH":5424,"BSTAR":0.00047267461,"MEAN_MOTION_DOT":7.81e-5,"MEAN_MOTION_DDOT":0}]
