STARLINK-4179           
1 53275U 22086AK  26068.62591258 -.00000217  00000+0  44790-5 0  9999
2 53275  53.2176 184.4077 0001218  80.9770 279.1360 15.08837995201187
YAM-8                   
1 63254U 25052AW  26068.73092778  .00007810  00000+0  47267-3 0  9993
2 63254  97.7023 329.5345 0002369 152.6796 207.4558 15.10898938 54245
